STARLINK-36587          
1 67532U 26014A   26051.64788443  .00352342  00000+0  17633-2 0  9994
2 67532  97.2833 295.7876 0002960 119.1967 240.9598 15.80860633  5891
STARLINK-36417          
1 67533U 26014B   26051.57412365  .00321886  00000+0  20697-2 0  9997
2 67533  97.2810 295.5774 0002353  87.6294 272.5241 15.75289750  5873
STARLINK-36576          
1 67534U 26014C   26051.66518153  .00324880  00000+0  20872-2 0  9992
2 67534  97.2837 295.7634 0001632 131.0539 229.0868 15.75300118  5891
STARLINK-36574          
1 67535U 26014D   26051.91668981 -.00118893  00000+0 -80536-3 0  9997
2 67535  97.2844 296.0555 0002902  95.2866 316.1029 15.75240731  5993
STARLINK-36572          
1 67536U 26014E   26051.24272403  .00243754  00000+0  15915-2 0  9995
2 67536  97.2822 295.2665 0002516  84.5655 275.5898 15.75151136  5825
STARLINK-36561          
1 67537U 26014F   26051.18519340  .00198783  00000+0  13027-2 0  9996
2 67537  97.2821 295.1898 0002361  89.6759 270.4777 15.75191403  5811
STARLINK-36397          
1 67538U 26014G   26051.63376751  .00279917  00000+0  18086-2 0  9993
2 67538  97.2854 295.6537 0002279 125.5937 234.5541 15.75292488  5881
STARLINK-36573          
1 67539U 26014H   26051.91668981 -.00183458  00000+0 -12500-2 0  9995
2 67539  97.2847 296.0447 0001550  72.3558 317.0347 15.75292660  5993
STARLINK-36585          
1 67540U 26014J   26051.24448877  .00232876  00000+0  15213-2 0  9994
2 67540  97.2826 295.2588 0002718  81.7864 278.3709 15.75168967  5825
STARLINK-36579          
1 67541U 26014K   26051.23672307  .00165483  00000+0  10905-2 0  9993
2 67541  97.2834 295.2728 0002294  73.1567 286.9949 15.75157258  5827
STARLINK-35934          
1 67542U 26014L   26051.91668981 -.00009749  00000+0 -64584-4 0  9990
2 67542  97.2845 296.0691 0001387  86.0841 359.3148 15.75183174  5987
STARLINK-36581          
1 67543U 26014M   26051.65530384  .00104262  00000+0  68918-3 0  9995
2 67543  97.2836 295.7744 0001780  38.1693 321.9698 15.75263310  5899
